[{"OBJECT_NAME":"STARLINK-30494","OBJECT_ID":"2023-151G","EPOCH":"2026-03-09T08:39:06.366240","MEAN_MOTION":15.28417441,"ECCENTRICITY":0.00011553,"INCLINATION":43.0027,"RA_OF_ASC_NODE":192.4566,"ARG_OF_PERICENTER":241.5536,"MEAN_ANOMALY":118.52,"EPHEMERIS_TYPE":0,"CLASSIFICATION_TYPE":"U","NORAD_CAT_ID":57970,"ELEMENT_SET_NO":999,"REV_AT_EPOCH":13740,"BSTAR":-3.569111e-5,"MEAN_MOTION_DOT":-1.272e-5,"MEAN_MOTION_DDOT":0},{"OBJECT_NAME":"STARLINK-34787","OBJECT_ID":"2025-176G","EPOCH":"2026-03-09T22:43:31.092096","MEAN_MOTION":15.30200787,"ECCENTRICITY":0.00013805,"INCLINATION":53.1606,"RA_OF_ASC_NODE":151.2612,"ARG_OF_PERICENTER":89.6011,"MEAN_ANOMALY":270.5147,"EPHEMERIS_TYPE":0,"CLASSIFICATION_TYPE":"U","NORAD_CAT_ID":65204,"ELEMENT_SET_NO":999,"REV_AT_EPOCH":3316,"BSTAR":0.00096241233,"MEAN_MOTION_DOT":0.00028254,"MEAN_MOTION_DDOT":0}]
